<?xml version="1.0" encoding="UTF-8"?>
<gpx version="1.1" creator="qa-fixture" xmlns="http://www.topografix.com/GPX/1/1">
  <trk>
    <name>missing_attrs</name>
    <trkseg>
      <trkpt lat="35.3020000" lon="139.4790000"><time>2026-07-24T05:00:00.000Z</time></trkpt>
      <!-- lon属性が欠落 -->
      <trkpt lat="35.3020200"><time>2026-07-24T05:00:01.000Z</time></trkpt>
      <!-- time要素が欠落 -->
      <trkpt lat="35.3020400" lon="139.4790400"></trkpt>
      <trkpt lat="35.3020600" lon="139.4790600"><time>2026-07-24T05:00:03.000Z</time></trkpt>
    </trkseg>
  </trk>
</gpx>
